ATLAS CENTAUR R/B       
1 06155U 72065B   25299.62164076  .00002032  00000+0  28263-3 0  9996
2 06155  35.0033  11.1659 0034330 321.4768  38.3484 14.77221025821428
SL-8 R/B                
1 08459U 75112B   25299.66678520  .00000400  00000+0  14058-3 0  9993
2 08459  74.0594 265.4370 0015046  25.4657 334.7235 14.38099722612606
SL-3 R/B                
1 10114U 77057B   25299.77922897  .00012381  00000+0  29716-3 0  9993
2 10114  97.5683 101.3386 0008778  52.0304 308.1734 15.41479515647671
SEASAT 1                
1 10967U 78064A   25299.64066207  .00000540  00000+0  19006-3 0  9993
2 10967 108.0046 204.2452 0002685 263.8442  96.2398 14.45982763487132
SL-14 R/B               
1 11267U 79011B   25299.83338959  .00001026  00000+0  99250-4 0  9997
2 11267  82.5258 223.5187 0017065 139.9418 220.3063 14.91681462508822
SL-8 R/B                
1 11574U 79089B   25299.80761293  .00000382  00000+0  12369-3 0  9990
2 11574  74.0697 338.8443 0015766 189.9175 170.1673 14.42236272416808
SL-14 R/B               
1 11672U 80005B   25299.82554163  .00001127  00000+0  11225-3 0  9995
2 11672  82.5135  74.1820 0014429 247.9626 112.0061 14.90693578456548
SL-8 R/B                
1 12139U 81003B   25299.82198370  .00020801  00000+0  58426-3 0  9991
2 12139  82.9332  53.2978 0285359 282.4884  74.4558 15.04515491294505
SL-3 R/B                
1 12465U 81046B   25299.81331204  .00014283  00000+0  37647-3 0  9993
2 12465  81.2315  90.0068 0020815 124.1673 236.1545 15.38154903417820
METEOR PRIRODA          
1 12585U 81065A   25299.84792723  .00277202  32491-4  67645-3 0  9994
2 12585  97.4611   2.5043 0001034  23.4121 336.7201 15.96205158423289
SL-3 R/B                
1 12904U 81103B   25299.78354885  .00004696  00000+0  21945-3 0  9992
2 12904  81.1624  10.3108 0017868  35.6309 324.6110 15.19460984952885
SL-3 R/B                
1 13068U 82013B   25299.79634806  .00005778  00000+0  26181-3 0  9999
2 13068  81.1738 317.5421 0021497 270.5785  89.2982 15.20485910383993
