CCSDS_OMM_VERS = 2.0
CREATION_DATE  = 
ORIGINATOR     = 

OBJECT_NAME    = ATLAS CENTAUR R/B
OBJECT_ID      = 1972-065B
CENTER_NAME    = EARTH
REF_FRAME      = TEME
TIME_SYSTEM    = UTC
MEAN_ELEMENT_THEORY = SGP/SGP4

EPOCH          = 2025-10-26T14:55:09.761664
MEAN_MOTION    = 14.77221025
ECCENTRICITY   = .003433
INCLINATION    = 35.0033
RA_OF_ASC_NODE = 11.1659
ARG_OF_PERICENTER = 321.4768
MEAN_ANOMALY   = 38.3484

EPHEMERIS_TYPE = 0
CLASSIFICATION_TYPE = U
NORAD_CAT_ID   = 6155
ELEMENT_SET_NO = 999
REV_AT_EPOCH   = 82142
BSTAR          = .28263E-3
MEAN_MOTION_DOT = .2032E-4
MEAN_MOTION_DDOT = 0

CCSDS_OMM_VERS = 2.0
CREATION_DATE  = 
ORIGINATOR     = 

OBJECT_NAME    = SL-8 R/B
OBJECT_ID      = 1975-112B
CENTER_NAME    = EARTH
REF_FRAME      = TEME
TIME_SYSTEM    = UTC
MEAN_ELEMENT_THEORY = SGP/SGP4

EPOCH          = 2025-10-26T16:00:10.241280
MEAN_MOTION    = 14.38099722
ECCENTRICITY   = .0015046
INCLINATION    = 74.0594
RA_OF_ASC_NODE = 265.4370
ARG_OF_PERICENTER = 25.4657
MEAN_ANOMALY   = 334.7235

EPHEMERIS_TYPE = 0
CLASSIFICATION_TYPE = U
NORAD_CAT_ID   = 8459
ELEMENT_SET_NO = 999
REV_AT_EPOCH   = 61260
BSTAR          = .14058E-3
MEAN_MOTION_DOT = .4E-5
MEAN_MOTION_DDOT = 0

CCSDS_OMM_VERS = 2.0
CREATION_DATE  = 
ORIGINATOR     = 

OBJECT_NAME    = SL-3 R/B
OBJECT_ID      = 1977-057B
CENTER_NAME    = EARTH
REF_FRAME      = TEME
TIME_SYSTEM    = UTC
MEAN_ELEMENT_THEORY = SGP/SGP4

EPOCH          = 2025-10-26T18:42:05.383008
MEAN_MOTION    = 15.41479515
ECCENTRICITY   = .0008778
INCLINATION    = 97.5683
RA_OF_ASC_NODE = 101.3386
ARG_OF_PERICENTER = 52.0304
MEAN_ANOMALY   = 308.1734

EPHEMERIS_TYPE = 0
CLASSIFICATION_TYPE = U
NORAD_CAT_ID   = 10114
ELEMENT_SET_NO = 999
REV_AT_EPOCH   = 64767
BSTAR          = .29716E-3
MEAN_MOTION_DOT = .12381E-3
MEAN_MOTION_DDOT = 0

CCSDS_OMM_VERS = 2.0
CREATION_DATE  = 
ORIGINATOR     = 

OBJECT_NAME    = SEASAT 1
OBJECT_ID      = 1978-064A
CENTER_NAME    = EARTH
REF_FRAME      = TEME
TIME_SYSTEM    = UTC
MEAN_ELEMENT_THEORY = SGP/SGP4

EPOCH          = 2025-10-26T15:22:33.202848
MEAN_MOTION    = 14.45982763
ECCENTRICITY   = .0002685
INCLINATION    = 108.0046
RA_OF_ASC_NODE = 204.2452
ARG_OF_PERICENTER = 263.8442
MEAN_ANOMALY   = 96.2398

EPHEMERIS_TYPE = 0
CLASSIFICATION_TYPE = U
NORAD_CAT_ID   = 10967
ELEMENT_SET_NO = 999
REV_AT_EPOCH   = 48713
BSTAR          = .19006E-3
MEAN_MOTION_DOT = .54E-5
MEAN_MOTION_DDOT = 0

CCSDS_OMM_VERS = 2.0
CREATION_DATE  = 
ORIGINATOR     = 

OBJECT_NAME    = SL-14 R/B
OBJECT_ID      = 1979-011B
CENTER_NAME    = EARTH
REF_FRAME      = TEME
TIME_SYSTEM    = UTC
MEAN_ELEMENT_THEORY = SGP/SGP4

EPOCH          = 2025-10-26T20:00:04.860576
MEAN_MOTION    = 14.91681462
ECCENTRICITY   = .0017065
INCLINATION    = 82.5258
RA_OF_ASC_NODE = 223.5187
ARG_OF_PERICENTER = 139.9418
MEAN_ANOMALY   = 220.3063

EPHEMERIS_TYPE = 0
CLASSIFICATION_TYPE = U
NORAD_CAT_ID   = 11267
ELEMENT_SET_NO = 999
REV_AT_EPOCH   = 50882
BSTAR          = .9925E-4
MEAN_MOTION_DOT = .1026E-4
MEAN_MOTION_DDOT = 0

CCSDS_OMM_VERS = 2.0
CREATION_DATE  = 
ORIGINATOR     = 

OBJECT_NAME    = SL-8 R/B
OBJECT_ID      = 1979-089B
CENTER_NAME    = EARTH
REF_FRAME      = TEME
TIME_SYSTEM    = UTC
MEAN_ELEMENT_THEORY = SGP/SGP4

EPOCH          = 2025-10-26T19:22:57.757152
MEAN_MOTION    = 14.42236272
ECCENTRICITY   = .0015766
INCLINATION    = 74.0697
RA_OF_ASC_NODE = 338.8443
ARG_OF_PERICENTER = 189.9175
MEAN_ANOMALY   = 170.1673

EPHEMERIS_TYPE = 0
CLASSIFICATION_TYPE = U
NORAD_CAT_ID   = 11574
ELEMENT_SET_NO = 999
REV_AT_EPOCH   = 41680
BSTAR          = .12369E-3
MEAN_MOTION_DOT = .382E-5
MEAN_MOTION_DDOT = 0

CCSDS_OMM_VERS = 2.0
CREATION_DATE  = 
ORIGINATOR     = 

OBJECT_NAME    = SL-14 R/B
OBJECT_ID      = 1980-005B
CENTER_NAME    = EARTH
REF_FRAME      = TEME
TIME_SYSTEM    = UTC
MEAN_ELEMENT_THEORY = SGP/SGP4

EPOCH          = 2025-10-26T19:48:46.796832
MEAN_MOTION    = 14.90693578
ECCENTRICITY   = .0014429
INCLINATION    = 82.5135
RA_OF_ASC_NODE = 74.1820
ARG_OF_PERICENTER = 247.9626
MEAN_ANOMALY   = 112.0061

EPHEMERIS_TYPE = 0
CLASSIFICATION_TYPE = U
NORAD_CAT_ID   = 11672
ELEMENT_SET_NO = 999
REV_AT_EPOCH   = 45654
BSTAR          = .11225E-3
MEAN_MOTION_DOT = .1127E-4
MEAN_MOTION_DDOT = 0

CCSDS_OMM_VERS = 2.0
CREATION_DATE  = 
ORIGINATOR     = 

OBJECT_NAME    = SL-8 R/B
OBJECT_ID      = 1981-003B
CENTER_NAME    = EARTH
REF_FRAME      = TEME
TIME_SYSTEM    = UTC
MEAN_ELEMENT_THEORY = SGP/SGP4

EPOCH          = 2025-10-26T19:43:39.391680
MEAN_MOTION    = 15.04515491
ECCENTRICITY   = .0285359
INCLINATION    = 82.9332
RA_OF_ASC_NODE = 53.2978
ARG_OF_PERICENTER = 282.4884
MEAN_ANOMALY   = 74.4558

EPHEMERIS_TYPE = 0
CLASSIFICATION_TYPE = U
NORAD_CAT_ID   = 12139
ELEMENT_SET_NO = 999
REV_AT_EPOCH   = 29450
BSTAR          = .58426E-3
MEAN_MOTION_DOT = .20801E-3
MEAN_MOTION_DDOT = 0

CCSDS_OMM_VERS = 2.0
CREATION_DATE  = 
ORIGINATOR     = 

OBJECT_NAME    = SL-3 R/B
OBJECT_ID      = 1981-046B
CENTER_NAME    = EARTH
REF_FRAME      = TEME
TIME_SYSTEM    = UTC
MEAN_ELEMENT_THEORY = SGP/SGP4

EPOCH          = 2025-10-26T19:31:10.160256
MEAN_MOTION    = 15.38154903
ECCENTRICITY   = .0020815
INCLINATION    = 81.2315
RA_OF_ASC_NODE = 90.0068
ARG_OF_PERICENTER = 124.1673
MEAN_ANOMALY   = 236.1545

EPHEMERIS_TYPE = 0
CLASSIFICATION_TYPE = U
NORAD_CAT_ID   = 12465
ELEMENT_SET_NO = 999
REV_AT_EPOCH   = 41782
BSTAR          = .37647E-3
MEAN_MOTION_DOT = .14283E-3
MEAN_MOTION_DDOT = 0

CCSDS_OMM_VERS = 2.0
CREATION_DATE  = 
ORIGINATOR     = 

OBJECT_NAME    = METEOR PRIRODA
OBJECT_ID      = 1981-065A
CENTER_NAME    = EARTH
REF_FRAME      = TEME
TIME_SYSTEM    = UTC
MEAN_ELEMENT_THEORY = SGP/SGP4

EPOCH          = 2025-10-26T20:21:00.912672
MEAN_MOTION    = 15.96205158
ECCENTRICITY   = .0001034
INCLINATION    = 97.4611
RA_OF_ASC_NODE = 2.5043
ARG_OF_PERICENTER = 23.4121
MEAN_ANOMALY   = 336.7201

EPHEMERIS_TYPE = 0
CLASSIFICATION_TYPE = U
NORAD_CAT_ID   = 12585
ELEMENT_SET_NO = 999
REV_AT_EPOCH   = 42328
BSTAR          = .67645E-3
MEAN_MOTION_DOT = .277202E-2
MEAN_MOTION_DDOT = .32491E-4

CCSDS_OMM_VERS = 2.0
CREATION_DATE  = 
ORIGINATOR     = 

OBJECT_NAME    = SL-3 R/B
OBJECT_ID      = 1981-103B
CENTER_NAME    = EARTH
REF_FRAME      = TEME
TIME_SYSTEM    = UTC
MEAN_ELEMENT_THEORY = SGP/SGP4

EPOCH          = 2025-10-26T18:48:18.620640
MEAN_MOTION    = 15.19460984
ECCENTRICITY   = .0017868
INCLINATION    = 81.1624
RA_OF_ASC_NODE = 10.3108
ARG_OF_PERICENTER = 35.6309
MEAN_ANOMALY   = 324.6110

EPHEMERIS_TYPE = 0
CLASSIFICATION_TYPE = U
NORAD_CAT_ID   = 12904
ELEMENT_SET_NO = 999
REV_AT_EPOCH   = 95288
BSTAR          = .21945E-3
MEAN_MOTION_DOT = .4696E-4
MEAN_MOTION_DDOT = 0

CCSDS_OMM_VERS = 2.0
CREATION_DATE  = 
ORIGINATOR     = 

OBJECT_NAME    = SL-3 R/B
OBJECT_ID      = 1982-013B
CENTER_NAME    = EARTH
REF_FRAME      = TEME
TIME_SYSTEM    = UTC
MEAN_ELEMENT_THEORY = SGP/SGP4

EPOCH          = 2025-10-26T19:06:44.472384
MEAN_MOTION    = 15.20485910
ECCENTRICITY   = .0021497
INCLINATION    = 81.1738
RA_OF_ASC_NODE = 317.5421
ARG_OF_PERICENTER = 270.5785
MEAN_ANOMALY   = 89.2982

EPHEMERIS_TYPE = 0
CLASSIFICATION_TYPE = U
NORAD_CAT_ID   = 13068
ELEMENT_SET_NO = 999
REV_AT_EPOCH   = 38399
BSTAR          = .26181E-3
MEAN_MOTION_DOT = .5778E-4
MEAN_MOTION_DDOT = 0

